CCSDS_OMM_VERS = 2.0
CREATION_DATE  = 
ORIGINATOR     = 

OBJECT_NAME    = STARLINK-35691
OBJECT_ID      = 2025-257AA
CENTER_NAME    = EARTH
REF_FRAME      = TEME
TIME_SYSTEM    = UTC
MEAN_ELEMENT_THEORY = SGP/SGP4

EPOCH          = 2025-12-08T20:00:01.999008
MEAN_MOTION    = 15.41534739
ECCENTRICITY   = .0001192
INCLINATION    = 53.1596
RA_OF_ASC_NODE = 282.4907
ARG_OF_PERICENTER = 100.6321
MEAN_ANOMALY   = 280.9463

EPHEMERIS_TYPE = 0
CLASSIFICATION_TYPE = U
NORAD_CAT_ID   = 66404
ELEMENT_SET_NO = 999
REV_AT_EPOCH   = 586
BSTAR          = -.54165E-1
MEAN_MOTION_DOT = -.2050561E-1
MEAN_MOTION_DDOT = 0

CCSDS_OMM_VERS = 2.0
CREATION_DATE  = 
ORIGINATOR     = 

OBJECT_NAME    = STARLINK-35683
OBJECT_ID      = 2025-257AB
CENTER_NAME    = EARTH
REF_FRAME      = TEME
TIME_SYSTEM    = UTC
MEAN_ELEMENT_THEORY = SGP/SGP4

EPOCH          = 2025-12-08T20:00:01.999008
MEAN_MOTION    = 15.44596643
ECCENTRICITY   = .0001143
INCLINATION    = 53.1590
RA_OF_ASC_NODE = 282.4562
ARG_OF_PERICENTER = 96.8529
MEAN_ANOMALY   = 302.0279

EPHEMERIS_TYPE = 0
CLASSIFICATION_TYPE = U
NORAD_CAT_ID   = 66405
ELEMENT_SET_NO = 999
REV_AT_EPOCH   = 571
BSTAR          = -.48327E-1
MEAN_MOTION_DOT = -.2032504E-1
MEAN_MOTION_DDOT = 0

CCSDS_OMM_VERS = 2.0
CREATION_DATE  = 
ORIGINATOR     = 

OBJECT_NAME    = STARLINK-34840
OBJECT_ID      = 2025-257AC
CENTER_NAME    = EARTH
REF_FRAME      = TEME
TIME_SYSTEM    = UTC
MEAN_ELEMENT_THEORY = SGP/SGP4

EPOCH          = 2025-12-08T13:34:41.658816
MEAN_MOTION    = 15.49353814
ECCENTRICITY   = .00004215
INCLINATION    = 53.1588
RA_OF_ASC_NODE = 283.7070
ARG_OF_PERICENTER = 123.5038
MEAN_ANOMALY   = 236.6011

EPHEMERIS_TYPE = 0
CLASSIFICATION_TYPE = U
NORAD_CAT_ID   = 66406
ELEMENT_SET_NO = 999
REV_AT_EPOCH   = 567
BSTAR          = .19441938E-2
MEAN_MOTION_DOT = .109379E-2
MEAN_MOTION_DDOT = 0

CCSDS_OMM_VERS = 2.0
CREATION_DATE  = 
ORIGINATOR     = 

OBJECT_NAME    = STARLINK-35686
OBJECT_ID      = 2025-257AD
CENTER_NAME    = EARTH
REF_FRAME      = TEME
TIME_SYSTEM    = UTC
MEAN_ELEMENT_THEORY = SGP/SGP4

EPOCH          = 2025-12-08T16:00:03.000096
MEAN_MOTION    = 15.48445372
ECCENTRICITY   = .000124
INCLINATION    = 53.1591
RA_OF_ASC_NODE = 283.2320
ARG_OF_PERICENTER = 85.7776
MEAN_ANOMALY   = 113.5078

EPHEMERIS_TYPE = 0
CLASSIFICATION_TYPE = U
NORAD_CAT_ID   = 66407
ELEMENT_SET_NO = 999
REV_AT_EPOCH   = 584
BSTAR          = -.42879E-1
MEAN_MOTION_DOT = -.2058872E-1
MEAN_MOTION_DDOT = 0

CCSDS_OMM_VERS = 2.0
CREATION_DATE  = 
ORIGINATOR     = 

OBJECT_NAME    = STARLINK-35679
OBJECT_ID      = 2025-257AE
CENTER_NAME    = EARTH
REF_FRAME      = TEME
TIME_SYSTEM    = UTC
MEAN_ELEMENT_THEORY = SGP/SGP4

EPOCH          = 2025-12-08T20:00:01.999008
MEAN_MOTION    = 15.49342515
ECCENTRICITY   = .0001213
INCLINATION    = 53.1588
RA_OF_ASC_NODE = 282.4317
ARG_OF_PERICENTER = 100.0046
MEAN_ANOMALY   = 311.5458

EPHEMERIS_TYPE = 0
CLASSIFICATION_TYPE = U
NORAD_CAT_ID   = 66408
ELEMENT_SET_NO = 999
REV_AT_EPOCH   = 586
BSTAR          = -.12994E-2
MEAN_MOTION_DOT = -.72139E-3
MEAN_MOTION_DDOT = 0

CCSDS_OMM_VERS = 2.0
CREATION_DATE  = 
ORIGINATOR     = 

OBJECT_NAME    = CHUTIAN-2 A
OBJECT_ID      = 2025-256A
CENTER_NAME    = EARTH
REF_FRAME      = TEME
TIME_SYSTEM    = UTC
MEAN_ELEMENT_THEORY = SGP/SGP4

EPOCH          = 2025-12-08T20:40:06.627648
MEAN_MOTION    = 14.49934188
ECCENTRICITY   = .0013528
INCLINATION    = 98.2769
RA_OF_ASC_NODE = 47.6904
ARG_OF_PERICENTER = 189.5995
MEAN_ANOMALY   = 170.4943

EPHEMERIS_TYPE = 0
CLASSIFICATION_TYPE = U
NORAD_CAT_ID   = 66409
ELEMENT_SET_NO = 999
REV_AT_EPOCH   = 431
BSTAR          = .48068E-3
MEAN_MOTION_DOT = .1817E-4
MEAN_MOTION_DDOT = 0

CCSDS_OMM_VERS = 2.0
CREATION_DATE  = 
ORIGINATOR     = 

OBJECT_NAME    = CHUTIAN-2 B
OBJECT_ID      = 2025-256B
CENTER_NAME    = EARTH
REF_FRAME      = TEME
TIME_SYSTEM    = UTC
MEAN_ELEMENT_THEORY = SGP/SGP4

EPOCH          = 2025-12-08T12:01:02.397216
MEAN_MOTION    = 14.50918128
ECCENTRICITY   = .0013696
INCLINATION    = 98.2797
RA_OF_ASC_NODE = 47.3789
ARG_OF_PERICENTER = 193.7504
MEAN_ANOMALY   = 166.3320

EPHEMERIS_TYPE = 0
CLASSIFICATION_TYPE = U
NORAD_CAT_ID   = 66410
ELEMENT_SET_NO = 999
REV_AT_EPOCH   = 426
BSTAR          = .34704E-3
MEAN_MOTION_DOT = .1327E-4
MEAN_MOTION_DDOT = 0

CCSDS_OMM_VERS = 2.0
CREATION_DATE  = 
ORIGINATOR     = 

OBJECT_NAME    = ZK-1A R/B
OBJECT_ID      = 2025-256C
CENTER_NAME    = EARTH
REF_FRAME      = TEME
TIME_SYSTEM    = UTC
MEAN_ELEMENT_THEORY = SGP/SGP4

EPOCH          = 2025-12-08T18:48:04.305888
MEAN_MOTION    = 15.01844094
ECCENTRICITY   = .0228713
INCLINATION    = 98.3225
RA_OF_ASC_NODE = 50.2797
ARG_OF_PERICENTER = 258.1825
MEAN_ANOMALY   = 99.3665

EPHEMERIS_TYPE = 0
CLASSIFICATION_TYPE = U
NORAD_CAT_ID   = 66411
ELEMENT_SET_NO = 999
REV_AT_EPOCH   = 445
BSTAR          = .81739E-3
MEAN_MOTION_DOT = .18825E-3
MEAN_MOTION_DDOT = 0

CCSDS_OMM_VERS = 2.0
CREATION_DATE  = 
ORIGINATOR     = 

OBJECT_NAME    = HULIANWANG DIGUI 13A
OBJECT_ID      = 2025-258A
CENTER_NAME    = EARTH
REF_FRAME      = TEME
TIME_SYSTEM    = UTC
MEAN_ELEMENT_THEORY = SGP/SGP4

EPOCH          = 2025-12-08T08:38:10.619232
MEAN_MOTION    = 14.20432847
ECCENTRICITY   = .00076585
INCLINATION    = 50.0042
RA_OF_ASC_NODE = 280.4566
ARG_OF_PERICENTER = 343.0746
MEAN_ANOMALY   = 16.9909

EPHEMERIS_TYPE = 0
CLASSIFICATION_TYPE = U
NORAD_CAT_ID   = 66412
ELEMENT_SET_NO = 999
REV_AT_EPOCH   = 403
BSTAR          = .33138446E-3
MEAN_MOTION_DOT = .557E-5
MEAN_MOTION_DDOT = 0

CCSDS_OMM_VERS = 2.0
CREATION_DATE  = 
ORIGINATOR     = 

OBJECT_NAME    = HULIANWANG DIGUI 13B
OBJECT_ID      = 2025-258B
CENTER_NAME    = EARTH
REF_FRAME      = TEME
TIME_SYSTEM    = UTC
MEAN_ELEMENT_THEORY = SGP/SGP4

EPOCH          = 2025-12-08T13:55:26.220576
MEAN_MOTION    = 14.19797153
ECCENTRICITY   = .00071183
INCLINATION    = 49.9984
RA_OF_ASC_NODE = 279.6068
ARG_OF_PERICENTER = 354.2773
MEAN_ANOMALY   = 5.8056

EPHEMERIS_TYPE = 0
CLASSIFICATION_TYPE = U
NORAD_CAT_ID   = 66413
ELEMENT_SET_NO = 999
REV_AT_EPOCH   = 406
BSTAR          = .49733401E-3
MEAN_MOTION_DOT = .903E-5
MEAN_MOTION_DDOT = 0

CCSDS_OMM_VERS = 2.0
CREATION_DATE  = 
ORIGINATOR     = 

OBJECT_NAME    = HULIANWANG DIGUI 13C
OBJECT_ID      = 2025-258C
CENTER_NAME    = EARTH
REF_FRAME      = TEME
TIME_SYSTEM    = UTC
MEAN_ELEMENT_THEORY = SGP/SGP4

EPOCH          = 2025-12-08T13:50:17.110752
MEAN_MOTION    = 14.19947362
ECCENTRICITY   = .00070001
INCLINATION    = 50.0042
RA_OF_ASC_NODE = 279.6063
ARG_OF_PERICENTER = 343.3386
MEAN_ANOMALY   = 16.7294

EPHEMERIS_TYPE = 0
CLASSIFICATION_TYPE = U
NORAD_CAT_ID   = 66414
ELEMENT_SET_NO = 999
REV_AT_EPOCH   = 406
BSTAR          = .48116814E-3
MEAN_MOTION_DOT = .871E-5
MEAN_MOTION_DDOT = 0

CCSDS_OMM_VERS = 2.0
CREATION_DATE  = 
ORIGINATOR     = 

OBJECT_NAME    = HULIANWANG DIGUI 13D
OBJECT_ID      = 2025-258D
CENTER_NAME    = EARTH
REF_FRAME      = TEME
TIME_SYSTEM    = UTC
MEAN_ELEMENT_THEORY = SGP/SGP4

EPOCH          = 2025-12-08T08:35:29.309568
MEAN_MOTION    = 14.20669727
ECCENTRICITY   = .00072244
INCLINATION    = 50.0037
RA_OF_ASC_NODE = 280.4475
ARG_OF_PERICENTER = 349.9452
MEAN_ANOMALY   = 10.1314

EPHEMERIS_TYPE = 0
CLASSIFICATION_TYPE = U
NORAD_CAT_ID   = 66415
ELEMENT_SET_NO = 999
REV_AT_EPOCH   = 403
BSTAR          = .31612211E-3
MEAN_MOTION_DOT = .527E-5
MEAN_MOTION_DDOT = 0

