STARLINK-35691          
1 66404U 25257AA  25342.83335647 -.02050561  00000+0 -54165-1 0  9998
2 66404  53.1596 282.4907 0001192 100.6321 280.9463 15.41534739  5862
STARLINK-35683          
1 66405U 25257AB  25342.83335647 -.02032504  00000+0 -48327-1 0  9999
2 66405  53.1590 282.4562 0001143  96.8529 302.0279 15.44596643  5716
STARLINK-34840          
1 66406U 25257AC  25342.56575994  .00109379  00000+0  19442-2 0  9999
2 66406  53.1588 283.7070 0000421 123.5038 236.6011 15.49353814  5670
STARLINK-35686          
1 66407U 25257AD  25342.66670139 -.02058872  00000+0 -42879-1 0  9992
2 66407  53.1591 283.2320 0001240  85.7776 113.5078 15.48445372  5841
STARLINK-35679          
1 66408U 25257AE  25342.83335647 -.00072139  00000+0 -12994-2 0  9990
2 66408  53.1588 282.4317 0001213 100.0046 311.5458 15.49342515  5866
CHUTIAN-2 A             
1 66409U 25256A   25342.86118782  .00001817  00000+0  48068-3 0  9997
2 66409  98.2769  47.6904 0013528 189.5995 170.4943 14.49934188  4310
CHUTIAN-2 B             
1 66410U 25256B   25342.50072219  .00001327  00000+0  34704-3 0  9992
2 66410  98.2797  47.3789 0013696 193.7504 166.3320 14.50918128  4265
ZK-1A R/B               
1 66411U 25256C   25342.78338317  .00018825  00000+0  81739-3 0  9998
2 66411  98.3225  50.2797 0228713 258.1825  99.3665 15.01844094  4450
HULIANWANG DIGUI 13A    
1 66412U 25258A   25342.35984513  .00000557  00000+0  33138-3 0  9992
2 66412  50.0042 280.4566 0007658 343.0746  16.9909 14.20432847  4032
HULIANWANG DIGUI 13B    
1 66413U 25258B   25342.58016459  .00000903  00000+0  49733-3 0  9996
2 66413  49.9984 279.6068 0007118 354.2773   5.8056 14.19797153  4062
HULIANWANG DIGUI 13C    
1 66414U 25258C   25342.57658693  .00000871  00000+0  48117-3 0  9997
2 66414  50.0042 279.6063 0007000 343.3386  16.7294 14.19947362  4069
HULIANWANG DIGUI 13D    
1 66415U 25258D   25342.35797812  .00000527  00000+0  31612-3 0  9991
2 66415  50.0037 280.4475 0007224 349.9452  10.1314 14.20669727  4031
